[{"OBJECT_NAME":"ASTROCAST-0402","OBJECT_ID":"2023-001DE","EPOCH":"2026-03-09T19:21:31.190400","MEAN_MOTION":15.26734153,"ECCENTRICITY":0.00042092,"INCLINATION":97.5556,"RA_OF_ASC_NODE":160.6821,"ARG_OF_PERICENTER":216.6984,"MEAN_ANOMALY":143.3966,"EPHEMERIS_TYPE":0,"CLASSIFICATION_TYPE":"U","NORAD_CAT_ID":55109,"ELEMENT_SET_NO":999,"REV_AT_EPOCH":12936,"BSTAR":0.00041835119,"MEAN_MOTION_DOT":0.0001093,"MEAN_MOTION_DDOT":0},{"OBJECT_NAME":"STARLINK-30142","OBJECT_ID":"2023-079P","EPOCH":"2026-03-09T03:35:01.920192","MEAN_MOTION":15.27563421,"ECCENTRICITY":9.284e-5,"INCLINATION":42.9981,"RA_OF_ASC_NODE":106.8569,"ARG_OF_PERICENTER":278.1929,"MEAN_ANOMALY":81.8818,"EPHEMERIS_TYPE":0,"CLASSIFICATION_TYPE":"U","NORAD_CAT_ID":56836,"ELEMENT_SET_NO":999,"REV_AT_EPOCH":15284,"BSTAR":-2.5056361e-5,"MEAN_MOTION_DOT":-9.51e-6,"MEAN_MOTION_DDOT":0}]
